[{"OBJECT_NAME":"ONEWEB-0576","OBJECT_ID":"2023-043V","EPOCH":"2025-10-12T05:39:08.498592","MEAN_MOTION":13.16593634,"ECCENTRICITY":0.00019564,"INCLINATION":87.8979,"RA_OF_ASC_NODE":278.1685,"ARG_OF_PERICENTER":82.3311,"MEAN_ANOMALY":277.8042,"EPHEMERIS_TYPE":0,"CLASSIFICATION_TYPE":"U","NORAD_CAT_ID":56065,"ELEMENT_SET_NO":999,"REV_AT_EPOCH":12633,"BSTAR":4.7118028e-5,"MEAN_MOTION_DOT":3.1e-7,"MEAN_MOTION_DDOT":0},{"OBJECT_NAME":"ONEWEB-0577","OBJECT_ID":"2023-043W","EPOCH":"2025-10-12T05:48:14.890464","MEAN_MOTION":13.16596478,"ECCENTRICITY":0.00016928,"INCLINATION":87.8977,"RA_OF_ASC_NODE":278.1676,"ARG_OF_PERICENTER":67.6607,"MEAN_ANOMALY":292.4703,"EPHEMERIS_TYPE":0,"CLASSIFICATION_TYPE":"U","NORAD_CAT_ID":56066,"ELEMENT_SET_NO":999,"REV_AT_EPOCH":12636,"BSTAR":-0.00010254971,"MEAN_MOTION_DOT":-2.6e-7,"MEAN_MOTION_DDOT":0},{"OBJECT_NAME":"ONEWEB-0578","OBJECT_ID":"2023-043X","EPOCH":"2025-10-12T06:33:46.778112","MEAN_MOTION":13.21855377,"ECCENTRICITY":0.00020682,"INCLINATION":87.9167,"RA_OF_ASC_NODE":293.4424,"ARG_OF_PERICENTER":86.1275,"MEAN_ANOMALY":274.0095,"EPHEMERIS_TYPE":0,"CLASSIFICATION_TYPE":"U","NORAD_CAT_ID":56067,"ELEMENT_SET_NO":999,"REV_AT_EPOCH":12548,"BSTAR":2.7833013e-5,"MEAN_MOTION_DOT":2.5e-7,"MEAN_MOTION_DDOT":0},{"OBJECT_NAME":"ONEWEB-0579","OBJECT_ID":"2023-043Y","EPOCH":"2025-10-12T06:19:58.692864","MEAN_MOTION":13.21892762,"ECCENTRICITY":0.00017309,"INCLINATION":87.9168,"RA_OF_ASC_NODE":293.4313,"ARG_OF_PERICENTER":97.9341,"MEAN_ANOMALY":262.199,"EPHEMERIS_TYPE":0,"CLASSIFICATION_TYPE":"U","NORAD_CAT_ID":56068,"ELEMENT_SET_NO":999,"REV_AT_EPOCH":12549,"BSTAR":2.3598792e-5,"MEAN_MOTION_DOT":2.3e-7,"MEAN_MOTION_DDOT":0},{"OBJECT_NAME":"ONEWEB-0581","OBJECT_ID":"2023-043Z","EPOCH":"2025-10-12T05:57:23.190048","MEAN_MOTION":13.16594162,"ECCENTRICITY":0.00015176,"INCLINATION":87.8967,"RA_OF_ASC_NODE":278.1824,"ARG_OF_PERICENTER":79.5218,"MEAN_ANOMALY":280.6084,"EPHEMERIS_TYPE":0,"CLASSIFICATION_TYPE":"U","NORAD_CAT_ID":56069,"ELEMENT_SET_NO":999,"REV_AT_EPOCH":12633,"BSTAR":-0.00011566328,"MEAN_MOTION_DOT":-3.1e-7,"MEAN_MOTION_DDOT":0},{"OBJECT_NAME":"ONEWEB-0609","OBJECT_ID":"2023-043AA","EPOCH":"2025-10-12T07:30:36.669024","MEAN_MOTION":13.15547911,"ECCENTRICITY":0.00019156,"INCLINATION":87.8983,"RA_OF_ASC_NODE":308.6861,"ARG_OF_PERICENTER":95.599,"MEAN_ANOMALY":264.5359,"EPHEMERIS_TYPE":0,"CLASSIFICATION_TYPE":"U","NORAD_CAT_ID":56070,"ELEMENT_SET_NO":999,"REV_AT_EPOCH":12384,"BSTAR":-9.3116696e-5,"MEAN_MOTION_DOT":-2.2e-7,"MEAN_MOTION_DDOT":0},{"OBJECT_NAME":"ONEWEB-0613","OBJECT_ID":"2023-043AB","EPOCH":"2025-10-12T07:23:47.207328","MEAN_MOTION":13.1554934,"ECCENTRICITY":0.00017904,"INCLINATION":87.898,"RA_OF_ASC_NODE":308.7007,"ARG_OF_PERICENTER":102.6324,"MEAN_ANOMALY":257.5007,"EPHEMERIS_TYPE":0,"CLASSIFICATION_TYPE":"U","NORAD_CAT_ID":56071,"ELEMENT_SET_NO":999,"REV_AT_EPOCH":12384,"BSTAR":0.00063365095,"MEAN_MOTION_DOT":2.51e-6,"MEAN_MOTION_DDOT":0},{"OBJECT_NAME":"ONEWEB-0630","OBJECT_ID":"2023-043AC","EPOCH":"2025-10-12T07:16:55.449984","MEAN_MOTION":13.1554742,"ECCENTRICITY":0.00018111,"INCLINATION":87.898,"RA_OF_ASC_NODE":308.674,"ARG_OF_PERICENTER":103.5177,"MEAN_ANOMALY":256.6156,"EPHEMERIS_TYPE":0,"CLASSIFICATION_TYPE":"U","NORAD_CAT_ID":56072,"ELEMENT_SET_NO":999,"REV_AT_EPOCH":12383,"BSTAR":0.00017689254,"MEAN_MOTION_DOT":7.9e-7,"MEAN_MOTION_DDOT":0},{"OBJECT_NAME":"ONEWEB-0632","OBJECT_ID":"2023-043AD","EPOCH":"2025-10-12T07:10:05.363616","MEAN_MOTION":13.15547968,"ECCENTRICITY":0.00016687,"INCLINATION":87.8978,"RA_OF_ASC_NODE":308.6943,"ARG_OF_PERICENTER":92.1834,"MEAN_ANOMALY":267.9487,"EPHEMERIS_TYPE":0,"CLASSIFICATION_TYPE":"U","NORAD_CAT_ID":56073,"ELEMENT_SET_NO":999,"REV_AT_EPOCH":12383,"BSTAR":0.00034238057,"MEAN_MOTION_DOT":1.42e-6,"MEAN_MOTION_DDOT":0},{"OBJECT_NAME":"ONEWEB-0633","OBJECT_ID":"2023-043AE","EPOCH":"2025-10-12T03:21:54.342720","MEAN_MOTION":13.15547298,"ECCENTRICITY":0.00019627,"INCLINATION":87.8969,"RA_OF_ASC_NODE":308.6895,"ARG_OF_PERICENTER":105.9229,"MEAN_ANOMALY":254.2118,"EPHEMERIS_TYPE":0,"CLASSIFICATION_TYPE":"U","NORAD_CAT_ID":56074,"ELEMENT_SET_NO":999,"REV_AT_EPOCH":12379,"BSTAR":0.00047972271,"MEAN_MOTION_DOT":1.93e-6,"MEAN_MOTION_DDOT":0},{"OBJECT_NAME":"ONEWEB-0634","OBJECT_ID":"2023-043AF","EPOCH":"2025-10-12T03:01:22.165536","MEAN_MOTION":13.15547727,"ECCENTRICITY":0.00021936,"INCLINATION":87.8979,"RA_OF_ASC_NODE":308.7382,"ARG_OF_PERICENTER":95.9495,"MEAN_ANOMALY":264.1885,"EPHEMERIS_TYPE":0,"CLASSIFICATION_TYPE":"U","NORAD_CAT_ID":56075,"ELEMENT_SET_NO":999,"REV_AT_EPOCH":12378,"BSTAR":0.00030431252,"MEAN_MOTION_DOT":1.27e-6,"MEAN_MOTION_DDOT":0},{"OBJECT_NAME":"ONEWEB-0635","OBJECT_ID":"2023-043AG","EPOCH":"2025-10-12T02:54:31.554720","MEAN_MOTION":13.15549788,"ECCENTRICITY":0.00015974,"INCLINATION":87.8966,"RA_OF_ASC_NODE":308.697,"ARG_OF_PERICENTER":89.0472,"MEAN_ANOMALY":271.0841,"EPHEMERIS_TYPE":0,"CLASSIFICATION_TYPE":"U","NORAD_CAT_ID":56076,"ELEMENT_SET_NO":999,"REV_AT_EPOCH":12381,"BSTAR":0.00019011913,"MEAN_MOTION_DOT":8.4e-7,"MEAN_MOTION_DDOT":0},{"OBJECT_NAME":"ONEWEB-0636","OBJECT_ID":"2023-043AH","EPOCH":"2025-10-12T00:53:35.462400","MEAN_MOTION":13.15546979,"ECCENTRICITY":0.00016951,"INCLINATION":87.897,"RA_OF_ASC_NODE":308.7321,"ARG_OF_PERICENTER":89.1366,"MEAN_ANOMALY":270.9959,"EPHEMERIS_TYPE":0,"CLASSIFICATION_TYPE":"U","NORAD_CAT_ID":56077,"ELEMENT_SET_NO":999,"REV_AT_EPOCH":12378,"BSTAR":0.00012052683,"MEAN_MOTION_DOT":5.8e-7,"MEAN_MOTION_DDOT":0},{"OBJECT_NAME":"ONEWEB-0637","OBJECT_ID":"2023-043AJ","EPOCH":"2025-10-12T08:02:32.207136","MEAN_MOTION":13.15548485,"ECCENTRICITY":0.00019439,"INCLINATION":87.8973,"RA_OF_ASC_NODE":308.6863,"ARG_OF_PERICENTER":84.6342,"MEAN_ANOMALY":275.501,"EPHEMERIS_TYPE":0,"CLASSIFICATION_TYPE":"U","NORAD_CAT_ID":56078,"ELEMENT_SET_NO":999,"REV_AT_EPOCH":12384,"BSTAR":-0.00044523894,"MEAN_MOTION_DOT":-1.55e-6,"MEAN_MOTION_DDOT":0},{"OBJECT_NAME":"ONEWEB-0647","OBJECT_ID":"2023-043AK","EPOCH":"2025-10-12T07:55:42.596832","MEAN_MOTION":13.15547363,"ECCENTRICITY":0.0001679,"INCLINATION":87.8978,"RA_OF_ASC_NODE":308.7008,"ARG_OF_PERICENTER":96.0421,"MEAN_ANOMALY":264.0901,"EPHEMERIS_TYPE":0,"CLASSIFICATION_TYPE":"U","NORAD_CAT_ID":56079,"ELEMENT_SET_NO":999,"REV_AT_EPOCH":12383,"BSTAR":-0.00045441354,"MEAN_MOTION_DOT":-1.58e-6,"MEAN_MOTION_DDOT":0},{"OBJECT_NAME":"ONEWEB-0651","OBJECT_ID":"2023-043AL","EPOCH":"2025-10-12T07:48:52.011936","MEAN_MOTION":13.15549636,"ECCENTRICITY":0.00017293,"INCLINATION":87.898,"RA_OF_ASC_NODE":308.6939,"ARG_OF_PERICENTER":85.4983,"MEAN_ANOMALY":274.6345,"EPHEMERIS_TYPE":0,"CLASSIFICATION_TYPE":"U","NORAD_CAT_ID":56080,"ELEMENT_SET_NO":999,"REV_AT_EPOCH":12503,"BSTAR":-0.00034793481,"MEAN_MOTION_DOT":-1.18e-6,"MEAN_MOTION_DDOT":0},{"OBJECT_NAME":"ONEWEB-0718","OBJECT_ID":"2023-043AM","EPOCH":"2025-10-12T07:42:02.100096","MEAN_MOTION":13.1554694,"ECCENTRICITY":0.00024286,"INCLINATION":87.8981,"RA_OF_ASC_NODE":308.6755,"ARG_OF_PERICENTER":94.2485,"MEAN_ANOMALY":265.8923,"EPHEMERIS_TYPE":0,"CLASSIFICATION_TYPE":"U","NORAD_CAT_ID":56081,"ELEMENT_SET_NO":999,"REV_AT_EPOCH":12384,"BSTAR":-0.00024515989,"MEAN_MOTION_DOT":-7.9e-7,"MEAN_MOTION_DDOT":0},{"OBJECT_NAME":"ONEWEB-0561","OBJECT_ID":"2023-068A","EPOCH":"2025-10-12T04:04:51.399840","MEAN_MOTION":13.20773118,"ECCENTRICITY":0.00014142,"INCLINATION":87.9219,"RA_OF_ASC_NODE":323.9154,"ARG_OF_PERICENTER":94.8965,"MEAN_ANOMALY":265.233,"EPHEMERIS_TYPE":0,"CLASSIFICATION_TYPE":"U","NORAD_CAT_ID":56710,"ELEMENT_SET_NO":999,"REV_AT_EPOCH":11676,"BSTAR":-6.8924323e-5,"MEAN_MOTION_DOT":-1.5e-7,"MEAN_MOTION_DDOT":0},{"OBJECT_NAME":"ONEWEB-0668","OBJECT_ID":"2023-068B","EPOCH":"2025-10-12T06:00:48.494592","MEAN_MOTION":13.16595699,"ECCENTRICITY":0.00023944,"INCLINATION":87.8982,"RA_OF_ASC_NODE":278.1601,"ARG_OF_PERICENTER":84.2215,"MEAN_ANOMALY":275.9189,"EPHEMERIS_TYPE":0,"CLASSIFICATION_TYPE":"U","NORAD_CAT_ID":56711,"ELEMENT_SET_NO":999,"REV_AT_EPOCH":11915,"BSTAR":-8.657576e-6,"MEAN_MOTION_DOT":1.0e-7,"MEAN_MOTION_DDOT":0},{"OBJECT_NAME":"ONEWEB-0676","OBJECT_ID":"2023-068C","EPOCH":"2025-10-12T05:32:19.330656","MEAN_MOTION":13.16593197,"ECCENTRICITY":0.00017376,"INCLINATION":87.8976,"RA_OF_ASC_NODE":278.1799,"ARG_OF_PERICENTER":87.2149,"MEAN_ANOMALY":272.918,"EPHEMERIS_TYPE":0,"CLASSIFICATION_TYPE":"U","NORAD_CAT_ID":56712,"ELEMENT_SET_NO":999,"REV_AT_EPOCH":11907,"BSTAR":0.00068594225,"MEAN_MOTION_DOT":2.75e-6,"MEAN_MOTION_DDOT":0},{"OBJECT_NAME":"ONEWEB-0677","OBJECT_ID":"2023-068D","EPOCH":"2025-10-12T03:48:57.358944","MEAN_MOTION":13.20769924,"ECCENTRICITY":0.00018548,"INCLINATION":87.9221,"RA_OF_ASC_NODE":323.8951,"ARG_OF_PERICENTER":89.9757,"MEAN_ANOMALY":270.1589,"EPHEMERIS_TYPE":0,"CLASSIFICATION_TYPE":"U","NORAD_CAT_ID":56713,"ELEMENT_SET_NO":999,"REV_AT_EPOCH":11706,"BSTAR":0.00011474994,"MEAN_MOTION_DOT":6.0e-7,"MEAN_MOTION_DDOT":0},{"OBJECT_NAME":"ONEWEB-0678","OBJECT_ID":"2023-068E","EPOCH":"2025-10-12T03:17:20.958432","MEAN_MOTION":13.15547121,"ECCENTRICITY":0.00016823,"INCLINATION":87.898,"RA_OF_ASC_NODE":308.6859,"ARG_OF_PERICENTER":103.2065,"MEAN_ANOMALY":256.9253,"EPHEMERIS_TYPE":0,"CLASSIFICATION_TYPE":"U","NORAD_CAT_ID":56714,"ELEMENT_SET_NO":999,"REV_AT_EPOCH":11667,"BSTAR":0.00040642141,"MEAN_MOTION_DOT":1.66e-6,"MEAN_MOTION_DDOT":0},{"OBJECT_NAME":"ONEWEB-0679","OBJECT_ID":"2023-068F","EPOCH":"2025-10-12T08:00:01.999872","MEAN_MOTION":13.16742127,"ECCENTRICITY":0.00023417,"INCLINATION":87.898,"RA_OF_ASC_NODE":278.1456,"ARG_OF_PERICENTER":81.0767,"MEAN_ANOMALY":239.1749,"EPHEMERIS_TYPE":0,"CLASSIFICATION_TYPE":"U","NORAD_CAT_ID":56715,"ELEMENT_SET_NO":999,"REV_AT_EPOCH":523,"BSTAR":0.00091307411,"MEAN_MOTION_DOT":3.63e-6,"MEAN_MOTION_DDOT":0}]
